start=new Date('2022-11-11T00:00:00.000Z').valueOf();
sats=[{"MEAN_MOTION":"15.08815565","ARG_OF_PERICENTER":"16.4149","COUNTRY_CODE":"US","ECCENTRICITY":"0.00028260","APOAPSIS":"541.775","FILE":"3650424","OBJECT_TYPE":"PAYLOAD","BSTAR":"-0.00015300000000","CLASSIFICATION_TYPE":"U","REV_AT_EPOCH":"5299","MEAN_MOTION_DDOT":"0.0000000000000","GP_ID":"217309425","OBJECT_ID":"2021-125AM","MEAN_MOTION_DOT":"-0.00002721","OBJECT_NAME":"STARLINK-3273","LAUNCH_DATE":"2021-12-18","RCS_SIZE":"LARGE","SITE":"AFWTR","EPHEMERIS_TYPE":"0","TLE_LINE1":"1 50191U 21125AM  22314.47248553 -.00002721  00000-0 -15300-3 0  9993","NORAD_CAT_ID":"50191","INCLINATION":"53.2171","SEMIMAJOR_AXIS":"6917.955","CENTER_NAME":"EARTH","TLE_LINE2":"2 50191  53.2171 314.4394 0002826  16.4149 343.6934 15.08815565 52999","MEAN_ELEMENT_THEORY":"SGP4","PERIOD":"95.439","EPOCH":"2022-11-10T11:20:22.749792","REF_FRAME":"TEME","MEAN_ANOMALY":"343.6934","RA_OF_ASC_NODE":"314.4394","DECAY_DATE":null,"ELEMENT_SET_NO":"999","TIME_SYSTEM":"UTC","PERIAPSIS":"537.865"},{"DECAY_DATE":null,"PERIAPSIS":"537.880","ELEMENT_SET_NO":"999","TIME_SYSTEM":"UTC","RA_OF_ASC_NODE":"294.5063","PERIOD":"95.438","REF_FRAME":"TEME","EPOCH":"2022-11-10T11:01:49.802016","MEAN_ELEMENT_THEORY":"SGP4","MEAN_ANOMALY":"331.3354","TLE_LINE1":"1 50192U 21125AN  22314.45960419 -.00003506  00000-0 -20232-3 0  9996","NORAD_CAT_ID":"50192","INCLINATION":"53.2171","SEMIMAJOR_AXIS":"6917.910","CENTER_NAME":"EARTH","EPHEMERIS_TYPE":"0","TLE_LINE2":"2 50192  53.2171 294.5063 0002740  28.7789 331.3354 15.08830245 50183","OBJECT_NAME":"STARLINK-3259","LAUNCH_DATE":"2021-12-18","GP_ID":"217347122","OBJECT_ID":"2021-125AN","MEAN_MOTION_DDOT":"0.0000000000000","MEAN_MOTION_DOT":"-0.00003506","SITE":"AFWTR","RCS_SIZE":"LARGE","OBJECT_TYPE":"PAYLOAD","BSTAR":"-0.00020232000000","FILE":"3650777","CLASSIFICATION_TYPE":"U","REV_AT_EPOCH":"5018","ARG_OF_PERICENTER":"28.7789","COUNTRY_CODE":"US","ECCENTRICITY":"0.00027400","APOAPSIS":"541.671","MEAN_MOTION":"15.08830245"},{"DECAY_DATE":null,"ELEMENT_SET_NO":"999","TIME_SYSTEM":"UTC","PERIAPSIS":"537.978","RA_OF_ASC_NODE":"293.5644","MEAN_ELEMENT_THEORY":"SGP4","PERIOD":"95.439","REF_FRAME":"TEME","EPOCH":"2022-11-10T16:03:53.298432","MEAN_ANOMALY":"333.9458","EPHEMERIS_TYPE":"0","NORAD_CAT_ID":"50193","TLE_LINE1":"1 50193U 21125AP  22314.66936688 -.00003539  00000-0 -20441-3 0  9999","INCLINATION":"53.2176","SEMIMAJOR_AXIS":"6917.938","CENTER_NAME":"EARTH","TLE_LINE2":"2 50193  53.2176 293.5644 0002639  26.1667 333.9458 15.08821078 53356","GP_ID":"217372202","MEAN_MOTION_DDOT":"0.0000000000000","OBJECT_ID":"2021-125AP","MEAN_MOTION_DOT":"-0.00003539","OBJECT_NAME":"STARLINK-3261","LAUNCH_DATE":"2021-12-18","RCS_SIZE":"LARGE","SITE":"AFWTR","FILE":"3650843","OBJECT_TYPE":"PAYLOAD","BSTAR":"-0.00020441000000","CLASSIFICATION_TYPE":"U","REV_AT_EPOCH":"5335","ARG_OF_PERICENTER":"26.1667","COUNTRY_CODE":"US","ECCENTRICITY":"0.00026390","APOAPSIS":"541.629","MEAN_MOTION":"15.08821078"},{"MEAN_MOTION":"15.08826182","ECCENTRICITY":"0.00025750","APOAPSIS":"541.569","ARG_OF_PERICENTER":"29.1794","COUNTRY_CODE":"US","CLASSIFICATION_TYPE":"U","REV_AT_EPOCH":"5335","FILE":"3650843","OBJECT_TYPE":"PAYLOAD","BSTAR":"-0.00015477000000","RCS_SIZE":"LARGE","SITE":"AFWTR","MEAN_MOTION_DDOT":"0.0000000000000","GP_ID":"217370964","MEAN_MOTION_DOT":"-0.00002750","OBJECT_ID":"2021-125AQ","OBJECT_NAME":"STARLINK-3269","LAUNCH_DATE":"2021-12-18","TLE_LINE2":"2 50194  53.2189 293.6295 0002575  29.1794 330.9341 15.08826182 53356","EPHEMERIS_TYPE":"0","TLE_LINE1":"1 50194U 21125AQ  22314.65465172 -.00002750  00000-0 -15477-3 0  9991","NORAD_CAT_ID":"50194","CENTER_NAME":"EARTH","SEMIMAJOR_AXIS":"6917.923","INCLINATION":"53.2189","MEAN_ANOMALY":"330.9341","MEAN_ELEMENT_THEORY":"SGP4","PERIOD":"95.438","EPOCH":"2022-11-10T15:42:41.908608","REF_FRAME":"TEME","RA_OF_ASC_NODE":"293.6295","ELEMENT_SET_NO":"999","TIME_SYSTEM":"UTC","PERIAPSIS":"538.006","DECAY_DATE":null},{"MEAN_MOTION":"15.08838311","APOAPSIS":"541.430","ECCENTRICITY":"0.00024270","COUNTRY_CODE":"US","ARG_OF_PERICENTER":"32.3254","REV_AT_EPOCH":"5330","CLASSIFICATION_TYPE":"U","BSTAR":"0.00002792900000","OBJECT_TYPE":"PAYLOAD","FILE":"3650843","SITE":"AFWTR","RCS_SIZE":"LARGE","LAUNCH_DATE":"2021-12-18","OBJECT_NAME":"STARLINK-3266","MEAN_MOTION_DDOT":"0.0000000000000","GP_ID":"217371214","MEAN_MOTION_DOT":"0.00000156","OBJECT_ID":"2021-125AR","TLE_LINE2":"2 50195  53.2164 293.5831 0002427  32.3254 327.7886 15.08838311 53308","SEMIMAJOR_AXIS":"6917.886","INCLINATION":"53.2164","CENTER_NAME":"EARTH","TLE_LINE1":"1 50195U 21125AR  22314.66567654  .00000156  00000-0  27929-4 0  9993","NORAD_CAT_ID":"50195","EPHEMERIS_TYPE":"0","MEAN_ANOMALY":"327.7886","PERIOD":"95.438","EPOCH":"2022-11-10T15:58:34.453056","REF_FRAME":"TEME","MEAN_ELEMENT_THEORY":"SGP4","RA_OF_ASC_NODE":"293.5831","PERIAPSIS":"538.072","TIME_SYSTEM":"UTC","ELEMENT_SET_NO":"999","DECAY_DATE":null},{"MEAN_MOTION":"15.08824898","APOAPSIS":"541.778","ECCENTRICITY":"0.00028720","COUNTRY_CODE":"US","ARG_OF_PERICENTER":"20.1982","REV_AT_EPOCH":"5330","CLASSIFICATION_TYPE":"U","FILE":"3650843","BSTAR":"0.00093382000000","OBJECT_TYPE":"PAYLOAD","RCS_SIZE":"LARGE","SITE":"AFWTR","OBJECT_ID":"2021-125AS","GP_ID":"217371961","MEAN_MOTION_DDOT":"0.0000000000000","MEAN_MOTION_DOT":"0.00014599","LAUNCH_DATE":"2021-12-18","OBJECT_NAME":"STARLINK-3263","TLE_LINE2":"2 50196  53.2150 293.6688 0002872  20.1982 339.9123 15.08824898 53306","EPHEMERIS_TYPE":"0","SEMIMAJOR_AXIS":"6917.927","INCLINATION":"53.2150","CENTER_NAME":"EARTH","NORAD_CAT_ID":"50196","TLE_LINE1":"1 50196U 21125AS  22314.64728888  .00014599  00000-0  93382-3 0  9991","MEAN_ANOMALY":"339.9123","MEAN_ELEMENT_THEORY":"SGP4","PERIOD":"95.439","REF_FRAME":"TEME","EPOCH":"2022-11-10T15:32:05.759232","RA_OF_ASC_NODE":"293.6688","TIME_SYSTEM":"UTC","ELEMENT_SET_NO":"999","PERIAPSIS":"537.805","DECAY_DATE":null},{"ECCENTRICITY":"0.00022600","APOAPSIS":"541.406","ARG_OF_PERICENTER":"26.5401","COUNTRY_CODE":"US","MEAN_MOTION":"15.08808306","RCS_SIZE":"LARGE","SITE":"AFWTR","MEAN_MOTION_DDOT":"0.0000000000000","GP_ID":"217371703","MEAN_MOTION_DOT":"0.00013916","OBJECT_ID":"2021-125AT","OBJECT_NAME":"STARLINK-3267","LAUNCH_DATE":"2021-12-18","CLASSIFICATION_TYPE":"U","REV_AT_EPOCH":"5337","FILE":"3650843","OBJECT_TYPE":"PAYLOAD","BSTAR":"0.00089148000000","MEAN_ANOMALY":"333.5706","MEAN_ELEMENT_THEORY":"SGP4","PERIOD":"95.440","EPOCH":"2022-11-10T18:48:10.786752","REF_FRAME":"TEME","TLE_LINE2":"2 50197  53.2167 293.0588 0002260  26.5401 333.5706 15.08808306 53375","EPHEMERIS_TYPE":"0","NORAD_CAT_ID":"50197","TLE_LINE1":"1 50197U 21125AT  22314.78345818  .00013916  00000-0  89148-3 0  9992","SEMIMAJOR_AXIS":"6917.977","CENTER_NAME":"EARTH","INCLINATION":"53.2167","ELEMENT_SET_NO":"999","TIME_SYSTEM":"UTC","PERIAPSIS":"538.279","DECAY_DATE":null,"RA_OF_ASC_NODE":"293.0588"},{"PERIOD":"95.437","REF_FRAME":"TEME","MEAN_ELEMENT_THEORY":"SGP4","EPOCH":"2022-11-10T15:16:10.491456","MEAN_ANOMALY":"318.0959","EPHEMERIS_TYPE":"0","NORAD_CAT_ID":"50198","TLE_LINE1":"1 50198U 21125AU  22314.63623254  .00000652  00000-0  59087-4 0  9993","SEMIMAJOR_AXIS":"6917.877","CENTER_NAME":"EARTH","INCLINATION":"53.2162","TLE_LINE2":"2 50198  53.2162 293.7132 0002006  42.0187 318.0959 15.08841178 53300","DECAY_DATE":null,"ELEMENT_SET_NO":"999","TIME_SYSTEM":"UTC","PERIAPSIS":"538.354","RA_OF_ASC_NODE":"293.7132","ARG_OF_PERICENTER":"42.0187","COUNTRY_CODE":"US","ECCENTRICITY":"0.00020060","APOAPSIS":"541.130","MEAN_MOTION":"15.08841178","MEAN_MOTION_DDOT":"0.0000000000000","GP_ID":"217370465","OBJECT_ID":"2021-125AU","MEAN_MOTION_DOT":"0.00000652","OBJECT_NAME":"STARLINK-3264","LAUNCH_DATE":"2021-12-18","RCS_SIZE":"LARGE","SITE":"AFWTR","FILE":"3650843","OBJECT_TYPE":"PAYLOAD","BSTAR":"0.00005908700000","CLASSIFICATION_TYPE":"U","REV_AT_EPOCH":"5330"},{"ARG_OF_PERICENTER":"32.6779","COUNTRY_CODE":"US","ECCENTRICITY":"0.00027220","APOAPSIS":"541.676","MEAN_MOTION":"15.08824606","OBJECT_NAME":"STARLINK-3270","LAUNCH_DATE":"2021-12-18","GP_ID":"217370715","MEAN_MOTION_DOT":"0.00003597","MEAN_MOTION_DDOT":"0.0000000000000","OBJECT_ID":"2021-125AV","SITE":"AFWTR","RCS_SIZE":"LARGE","OBJECT_TYPE":"PAYLOAD","BSTAR":"0.00024410000000","FILE":"3650843","CLASSIFICATION_TYPE":"U","REV_AT_EPOCH":"5330","EPOCH":"2022-11-10T16:25:04.022976","PERIOD":"95.439","REF_FRAME":"TEME","MEAN_ELEMENT_THEORY":"SGP4","MEAN_ANOMALY":"327.4381","NORAD_CAT_ID":"50199","TLE_LINE1":"1 50199U 21125AV  22314.68407434  .00003597  00000-0  24410-3 0  9991","INCLINATION":"53.2163","SEMIMAJOR_AXIS":"6917.927","CENTER_NAME":"EARTH","EPHEMERIS_TYPE":"0","TLE_LINE2":"2 50199  53.2163 293.4887 0002722  32.6779 327.4381 15.08824606 53303","DECAY_DATE":null,"PERIAPSIS":"537.909","ELEMENT_SET_NO":"999","TIME_SYSTEM":"UTC","RA_OF_ASC_NODE":"293.4887"},{"FILE":"3650843","OBJECT_TYPE":"PAYLOAD","BSTAR":"-0.00008814300000","CLASSIFICATION_TYPE":"U","REV_AT_EPOCH":"5331","MEAN_MOTION_DDOT":"0.0000000000000","GP_ID":"217371462","OBJECT_ID":"2021-125AW","MEAN_MOTION_DOT":"-0.00001691","OBJECT_NAME":"STARLINK-3235","LAUNCH_DATE":"2021-12-18","RCS_SIZE":"LARGE","SITE":"AFWTR","MEAN_MOTION":"15.08839855","ARG_OF_PERICENTER":"23.1681","COUNTRY_CODE":"US","ECCENTRICITY":"0.00032080","APOAPSIS":"541.965","RA_OF_ASC_NODE":"293.6844","DECAY_DATE":null,"ELEMENT_SET_NO":"999","TIME_SYSTEM":"UTC","PERIAPSIS":"537.527","EPHEMERIS_TYPE":"0","TLE_LINE1":"1 50200U 21125AW  22314.64359927 -.00001691  00000-0 -88143-4 0  9992","NORAD_CAT_ID":"50200","SEMIMAJOR_AXIS":"6917.881","INCLINATION":"53.2173","CENTER_NAME":"EARTH","TLE_LINE2":"2 50200  53.2173 293.6844 0003208  23.1681 336.9455 15.08839855 53319","PERIOD":"95.438","MEAN_ELEMENT_THEORY":"SGP4","REF_FRAME":"TEME","EPOCH":"2022-11-10T15:26:46.976928","MEAN_ANOMALY":"336.9455"}];
